[{"OBJECT_NAME":"GLOBAL-32","OBJECT_ID":"2025-118B","EPOCH":"2026-03-09T15:28:39.817056","MEAN_MOTION":15.39419069,"ECCENTRICITY":0.0005231,"INCLINATION":58.9936,"RA_OF_ASC_NODE":174.7728,"ARG_OF_PERICENTER":331.4981,"MEAN_ANOMALY":28.5809,"EPHEMERIS_TYPE":0,"CLASSIFICATION_TYPE":"U","NORAD_CAT_ID":64231,"ELEMENT_SET_NO":999,"REV_AT_EPOCH":4292,"BSTAR":0.00049708,"MEAN_MOTION_DOT":0.0001937,"MEAN_MOTION_DDOT":0},{"OBJECT_NAME":"SPACEMOBILE-002 DEB","OBJECT_ID":"2024-163G","EPOCH":"2026-03-09T07:01:26.465088","MEAN_MOTION":15.38643904,"ECCENTRICITY":0.00060442,"INCLINATION":52.9451,"RA_OF_ASC_NODE":18.968,"ARG_OF_PERICENTER":209.5725,"MEAN_ANOMALY":150.4936,"EPHEMERIS_TYPE":0,"CLASSIFICATION_TYPE":"U","NORAD_CAT_ID":62370,"ELEMENT_SET_NO":999,"REV_AT_EPOCH":8296,"BSTAR":0.00068307364,"MEAN_MOTION_DOT":0.00026173,"MEAN_MOTION_DDOT":0}]
